{"fetched_at":"2026-03-29T16:36:15Z","count":15609,"tles":[{"name":"STARLINK-3986","line1":"1 52623U 22052AB  26087.74122150  .00000800  00000+0  68345-4 0  9991","line2":"2 52623  53.2161 183.5949 0001360  86.9299 273.1849 15.08846631213866","category":"Starlink"}]}